$$SOE
2459580.500000000, A.D. 2022-Jan-01 00:00:00.0000, 4.657289226693588E+07, -4.125074076893941E+08, -8.932826017714974E+07,
2459587.500000000, A.D. 2022-Jan-08 00:00:00.0000, 5.632252234100461E+07, -4.094949168137072E+08, -8.860823988330090E+07,
2459594.500000000, A.D. 2022-Jan-15 00:00:00.0000, 6.603597804549856E+07, -4.062192748220111E+08, -8.783127149002165E+07,
2459601.500000000, A.D. 2022-Jan-22 00:00:00.0000, 7.570643935057829E+07, -4.026789962461960E+08, -8.699707812782674E+07,
2459608.500000000, A.D. 2022-Jan-29 00:00:00.0000, 8.532692019939931E+07, -3.988727017994751E+08, -8.610540756253380E+07,
2459615.500000000, A.D. 2022-Feb-05 00:00:00.0000, 9.489026256622580E+07, -3.947991273873264E+08, -8.515603388525778E+07,
2459622.500000000, A.D. 2022-Feb-12 00:00:00.0000, 1.043891328484072E+08, -3.904571347383763E+08, -8.414875960617334E+07,
2459629.500000000, A.D. 2022-Feb-19 00:00:00.0000, 1.138160193036134E+08, -3.858457213118599E+08, -8.308341784254856E+07,
2459636.500000000, A.D. 2022-Feb-26 00:00:00.0000, 1.231632292604425E+08, -3.809640302297510E+08, -8.195987454527195E+07,
2459643.500000000, A.D. 2022-Mar-05 00:00:00.0000, 1.324228863053035E+08, -3.758113608745646E+08, -8.077803083410501E+07,
2459650.500000000, A.D. 2022-Mar-12 00:00:00.0000, 1.415869277155040E+08, -3.703871802417305E+08, -7.953782547238098E+07,
2459657.500000000, A.D. 2022-Mar-19 00:00:00.0000, 1.506471022623450E+08, -3.646911350401946E+08, -7.823923749000345E+07,
2459664.500000000, A.D. 2022-Mar-26 00:00:00.0000, 1.595949684646171E+08, -3.587230645666038E+08, -7.688228896139024E+07,
2459671.500000000, A.D. 2022-Apr-02 00:00:00.0000, 1.684218934246556E+08, -3.524830144260179E+08, -7.546704795288932E+07,
2459678.500000000, A.D. 2022-Apr-09 00:00:00.0000, 1.771190525901763E+08, -3.459712511100458E+08, -7.399363166784188E+07,
2459685.500000000, A.D. 2022-Apr-16 00:00:00.0000, 1.856774308761127E+08, -3.391882767928105E+08, -7.246220977182542E+07,
2459692.500000000, A.D. 2022-Apr-23 00:00:00.0000, 1.940878239594554E+08, -3.321348432716944E+08, -7.087300769514318E+07,
2459699.500000000, A.D. 2022-Apr-30 00:00:00.0000, 2.023408379633825E+08, -3.248119673026919E+08, -6.922630992460988E+07,
2459706.500000000, A.D. 2022-May-07 00:00:00.0000, 2.104268906860404E+08, -3.172209493004332E+08, -6.752246372497767E+07,
2459713.500000000, A.D. 2022-May-14 00:00:00.0000, 2.183362158631112E+08, -3.093633923546498E+08, -6.576188316564991E+07,
2459720.500000000, A.D. 2022-May-21 00:00:00.0000, 2.260588685391557E+08, -3.012412207857341E+08, -6.394505319874504E+07,
2459727.500000000, A.D. 2022-May-28 00:00:00.0000, 2.335847311827515E+08, -2.928566991683694E+08, -6.207253381532899E+07,
2459734.500000000, A.D. 2022-Jun-04 00:00:00.0000, 2.409035209458298E+08, -2.842124520963488E+08, -6.014496432208003E+07,
2459741.500000000, A.D. 2022-Jun-11 00:00:00.0000, 2.480047983431883E+08, -2.753114846384915E+08, -5.816306774163961E+07,
2459748.500000000, A.D. 2022-Jun-18 00:00:00.0000, 2.548779775264259E+08, -2.661572034148154E+08, -5.612765532682550E+07,
2459755.500000000, A.D. 2022-Jun-25 00:00:00.0000, 2.615123383184811E+08, -2.567534382542704E+08, -5.403963117778558E+07,
2459762.500000000, A.D. 2022-Jul-02 00:00:00.0000, 2.678970402807349E+08, -2.471044644087366E+08, -5.189999695872556E+07,
2459769.500000000, A.D. 2022-Jul-09 00:00:00.0000, 2.740211393443165E+08, -2.372150250351331E+08, -4.970985671029465E+07,
2459776.500000000, A.D. 2022-Jul-16 00:00:00.0000, 2.798736070946462E+08, -2.270903527339835E+08, -4.747042163499865E+07,
2459783.500000000, A.D. 2022-Jul-23 00:00:00.0000, 2.854433506520037E+08, -2.167361899189429E+08, -4.518301461389330E+07,
2459790.500000000, A.D. 2022-Jul-30 00:00:00.0000, 2.907192333655139E+08, -2.061588111980065E+08, -4.284907469693023E+07,
2459797.500000000, A.D. 2022-Aug-06 00:00:00.0000, 2.956901000458259E+08, -1.953650469179545E+08, -4.047016179928059E+07,
2459804.500000000, A.D. 2022-Aug-13 00:00:00.0000, 3.003448060320246E+08, -1.843623048940148E+08, -3.804796125319570E+07,
2459811.500000000, A.D. 2022-Aug-20 00:00:00.0000, 3.046722486274803E+08, -1.731585905804486E+08, -3.558428805712458E+07,
2459818.500000000, A.D. 2022-Aug-27 00:00:00.0000, 3.086614010570660E+08, -1.617625261337633E+08, -3.308109082664602E+07,
2459825.500000000, A.D. 2022-Sep-03 00:00:00.0000, 3.123013492568387E+08, -1.501833681748666E+08, -3.054045541300996E+07,
2459832.500000000, A.D. 2022-Sep-10 00:00:00.0000, 3.155813316253180E+08, -1.384310238878801E+08, -2.796460811996583E+07,
2459839.500000000, A.D. 2022-Sep-17 00:00:00.0000, 3.184907817563475E+08, -1.265160650969252E+08, -2.535591843186454E+07,
2459846.500000000, A.D. 2022-Sep-24 00:00:00.0000, 3.210193741635610E+08, -1.144497400169568E+08, -2.271690119355167E+07,
2459853.500000000, A.D. 2022-Oct-01 00:00:00.0000, 3.231570731825716E+08, -1.022439823022256E+08, -2.005021819837746E+07,
2459860.500000000, A.D. 2022-Oct-08 00:00:00.0000, 3.248941853348013E+08, -8.991141643763657E+07, -1.735867907655532E+07,
2459867.500000000, A.D. 2022-Oct-15 00:00:00.0000, 3.262214140323640E+08, -7.746535785523345E+07, -1.464524120628344E+07,
2459874.500000000, A.D. 2022-Oct-22 00:00:00.0000, 3.271299142042997E+08, -6.491980904576223E+07, -1.191300849835977E+07,
2459881.500000000, A.D. 2022-Oct-29 00:00:00.0000, 3.276113490318016E+08, -5.228945384404614E+07, -9.165229407454245E+06,
2459888.500000000, A.D. 2022-Nov-05 00:00:00.0000, 3.276579505102113E+08, -3.958964673799980E+07, -6.405294052613731E+06,
2459895.500000000, A.D. 2022-Nov-12 00:00:00.0000, 3.272625814255917E+08, -2.683639554765082E+07, -3.636730082631601E+06,
2459902.500000000, A.D. 2022-Nov-19 00:00:00.0000, 3.264187975094520E+08, -1.404633807763118E+07, -8.631972257523229E+05,
2459909.500000000, A.D. 2022-Nov-26 00:00:00.0000, 3.251209094460410E+08, -1.236712836132187E+06, 1.911519481638248E+06,
2459916.500000000, A.D. 2022-Dec-03 00:00:00.0000, 3.233640442430714E+08, 1.157467641410041E+07, 4.683517819727411E+06,
2459923.500000000, A.D. 2022-Dec-10 00:00:00.0000, 3.211442052946780E+08, 2.436950246627333E+07, 7.448787893334650E+06,
2459930.500000000, A.D. 2022-Dec-17 00:00:00.0000, 3.184583303914309E+08, 3.712896290774887E+07, 1.020322303306561E+07,
2459937.500000000, A.D. 2022-Dec-24 00:00:00.0000, 3.153043469746612E+08, 4.983383471501301E+07, 1.294263206724661E+07,
2459944.500000000, A.D. 2022-Dec-31 00:00:00.0000, 3.116812241488128E+08, 6.246453519897854E+07, 1.566275291006798E+07,
2459951.500000000, A.D. 2023-Jan-07 00:00:00.0000, 3.075890207084016E+08, 7.500119003490637E+07, 1.835926747682518E+07,
2459958.500000000, A.D. 2023-Jan-14 00:00:00.0000, 3.030289263535196E+08, 8.742370853353655E+07, 2.102781806609159E+07,
2459965.500000000, A.D. 2023-Jan-21 00:00:00.0000, 2.980032946297926E+08, 9.971186251206797E+07, 2.366402490287717E+07,
2459972.500000000, A.D. 2023-Jan-28 00:00:00.0000, 2.925156704777105E+08, 1.118453679643348E+08, 2.626350435596229E+07,
2459979.500000000, A.D. 2023-Feb-04 00:00:00.0000, 2.865708114553110E+08, 1.238039718327459E+08, 2.882188793476290E+07,
2459986.500000000, A.D. 2023-Feb-11 00:00:00.0000, 2.801747002007906E+08, 1.355675428486976E+08, 3.133484202892799E+07,
2459993.500000000, A.D. 2023-Feb-18 00:00:00.0000, 2.733345475383648E+08, 1.471161646735308E+08, 3.379808811963399E+07,
2460000.500000000, A.D. 2023-Feb-25 00:00:00.0000, 2.660587860786330E+08, 1.584302301509739E+08, 3.620742319554849E+07,
2460007.500000000, A.D. 2023-Mar-04 00:00:00.0000, 2.583570541504957E+08, 1.694905356050810E+08, 3.855874012359476E+07,
2460014.500000000, A.D. 2023-Mar-11 00:00:00.0000, 2.502401699961279E+08, 1.802783740608780E+08, 4.084804772574943E+07,
2460021.500000000, A.D. 2023-Mar-18 00:00:00.0000, 2.417200963549990E+08, 1.907756261926549E+08, 4.307149030790531E+07,
2460028.500000000, A.D. 2023-Mar-25 00:00:00.0000, 2.328098958916709E+08, 2.009648478076045E+08, 4.522536637584535E+07,
2460035.500000000, A.D. 2023-Apr-01 00:00:00.0000, 2.235236783100975E+08, 2.108293531419387E+08, 4.730614629569957E+07,
2460042.500000000, A.D. 2023-Apr-08 00:00:00.0000, 2.138765391109358E+08, 2.203532941316480E+08, 4.931048882929097E+07,
2460049.500000000, A.D. 2023-Apr-15 00:00:00.0000, 2.038844883628017E+08, 2.295217335810313E+08, 5.123525646037951E+07,
2460056.500000000, A.D. 2023-Apr-22 00:00:00.0000, 1.935643721526667E+08, 2.383207083349664E+08, 5.307752892007865E+07,
2460063.500000000, A.D. 2023-Apr-29 00:00:00.0000, 1.829337904305772E+08, 2.467372839856229E+08, 5.483461469542664E+07,
2460070.500000000, A.D. 2023-May-06 00:00:00.0000, 1.720110105455035E+08, 2.547596023117638E+08, 5.650406070734793E+07,
2460077.500000000, A.D. 2023-May-13 00:00:00.0000, 1.608148766157932E+08, 2.623769201373785E+08, 5.808366009015390E+07,
2460084.500000000, A.D. 2023-May-20 00:00:00.0000, 1.493647161284143E+08, 2.695796388638671E+08, 5.957145796320762E+07,
2460091.500000000, A.D. 2023-May-27 00:00:00.0000, 1.376802451296525E+08, 2.763593245553157E+08, 6.096575516246635E+07,
2460098.500000000, A.D. 2023-Jun-03 00:00:00.0000, 1.257814732151631E+08, 2.827087186716173E+08, 6.226510995112407E+07,
2460105.500000000, A.D. 2023-Jun-10 00:00:00.0000, 1.136886094492244E+08, 2.886217396558747E+08, 6.346833776098348E+07,
2460112.500000000, A.D. 2023-Jun-17 00:00:00.0000, 1.014219703412995E+08, 2.940934756752975E+08, 6.457450903619692E+07,
2460119.500000000, A.D. 2023-Jun-24 00:00:00.0000, 8.900189115258096E+07, 2.991201690547919E+08, 6.558294526588257E+07,
2460126.500000000, A.D. 2023-Jul-01 00:00:00.0000, 7.644864163833456E+07, 3.036991938227177E+08, 6.649321338456632E+07,
2460133.500000000, A.D. 2023-Jul-08 00:00:00.0000, 6.378234529633922E+07, 3.078290278637113E+08, 6.730511891199465E+07,
2460140.500000000, A.D. 2023-Jul-15 00:00:00.0000, 5.102290146082111E+07, 3.115092175739241E+08, 6.801869787790798E+07,
2460147.500000000, A.D. 2023-Jul-22 00:00:00.0000, 3.818991424782850E+07, 3.147403347678866E+08, 6.863420729847768E+07,
$$EOE